VIASAT-1                
1 37843U 11059A   23032.90464299 -.00000021  00000+0  00000+0 0  9996
2 37843   0.0242  88.8520 0002167 227.9532  25.5825  1.00272509 41921
GSAT0101 (GALILEO-PFM)  
1 37846U 11060A   23030.84713694 -.00000086  00000+0  00000+0 0  9999
2 37846  57.0671  15.1609 0003469 338.2887  21.6974  1.70476066 70091
GSAT0102 (GALILEO-FM2)  
1 37847U 11060B   23033.11175858 -.00000084  00000+0  00000+0 0  9995
2 37847  57.0693  15.0992 0005108 320.3889  36.2062  1.70475455 70255
SUOMI NPP               
1 37849U 11061A   23033.11180286  .00000058  00000+0  48597-4 0  9997
2 37849  98.7569 333.7175 0001140  69.9965 300.4499 14.19543377583768
M-CUBED & EXP-1 PRIME   
1 37855U 11061F   23032.24201862  .00014513  00000+0  55587-3 0  9998
2 37855 101.7108 278.8389 0138080  94.0502 267.6513 15.18265248615872
COSMOS 2476 [GLONASS-M] 
1 37867U 11064A   23032.16524874 -.00000045  00000+0  00000+0 0  9998
2 37867  64.7019 114.6432 0022508 234.7922 126.3309  2.13101728 87562
COSMOS 2477 [GLONASS-M] 
1 37868U 11064B   23032.39200573 -.00000044  00000+0  00000+0 0  9990
2 37868  64.7094 114.7026 0019973 235.9859 117.0835  2.13101552 87511
COSMOS 2475 [GLONASS-M] 
1 37869U 11064C   23032.47333711 -.00000043  00000+0  00000+0 0  9990
2 37869  64.7169 114.7101 0023990 252.5183 121.1863  2.13101755 87532
YAOGAN 12               
1 37875U 11066B   23033.12155296  .00008194  00000+0  34355-3 0  9990
2 37875  97.2896 103.9918 0007718 345.4103  71.9371 15.23727769625120
CHUANGXIN 1-03 (CX-1-03)
1 37930U 11068A   23033.18624121  .00000136  00000+0  70005-4 0  9999
2 37930  98.7034  33.1352 0015907 120.7253 239.5497 14.29916085587075
SHIYAN 4 (SY-4)         
1 37931U 11068B   23032.46934058  .00000063  00000+0  41697-4 0  9997
2 37931  98.7063  33.0456 0023401 154.0917 206.1445 14.30055814584657
ASIASAT 7               
1 37933U 11069A   23032.62341229 -.00000331  00000+0  00000+0 0  9997
2 37933   0.0186 177.4146 0001765 116.5911 167.4647  1.00272653 41113
YAOGAN 13               
1 37941U 11072A   23033.17727921  .00008807  00000+0  36248-3 0  9990
2 37941  97.6615 352.2711 0001573  47.9925  76.9848 15.24377525619754
BEIDOU 10               
1 37948U 11073A   23032.34352809 -.00000130  00000+0  00000+0 0  9990
2 37948  49.9212 286.5559 0085306 220.4209 203.9231  1.00282120 41057
LUCH 5A                 
1 37951U 11074B   23032.65411069 -.00000049  00000+0  00000+0 0  9992
2 37951   5.5975  93.4364 0002251 228.7221 211.9560  1.00268768 40849
SSOT                    
1 38011U 11076E   23033.13432297  .00001635  00000+0  21198-3 0  9998
2 38011  97.7687 104.0705 0001247  73.8953 286.2362 14.82111794602055
PLEIADES 1A             
1 38012U 11076F   23033.12677311  .00000493  00000+0  11578-3 0  9998
2 38012  98.1780 109.7969 0001433  79.1862 280.9475 14.58590321592553
