[{"OBJECT_NAME":"VIASAT-1","OBJECT_ID":"2011-059A","EPOCH":"2023-02-01T21:42:41.154336","MEAN_MOTION":1.00272509,"ECCENTRICITY":0.0002167,"INCLINATION":0.0242,"RA_OF_ASC_NODE":88.852,"ARG_OF_PERICENTER":227.9532,"MEAN_ANOMALY":25.5825,"EPHEMERIS_TYPE":0,"CLASSIFICATION_TYPE":"U","NORAD_CAT_ID":37843,"ELEMENT_SET_NO":999,"REV_AT_EPOCH":4192,"BSTAR":0,"MEAN_MOTION_DOT":-2.1e-7,"MEAN_MOTION_DDOT":0},{"OBJECT_NAME":"GSAT0101 (GALILEO-PFM)","OBJECT_ID":"2011-060A","EPOCH":"2023-01-30T20:19:52.631616","MEAN_MOTION":1.70476066,"ECCENTRICITY":0.0003469,"INCLINATION":57.0671,"RA_OF_ASC_NODE":15.1609,"ARG_OF_PERICENTER":338.2887,"MEAN_ANOMALY":21.6974,"EPHEMERIS_TYPE":0,"CLASSIFICATION_TYPE":"U","NORAD_CAT_ID":37846,"ELEMENT_SET_NO":999,"REV_AT_EPOCH":7009,"BSTAR":0,"MEAN_MOTION_DOT":-8.6e-7,"MEAN_MOTION_DDOT":0},{"OBJECT_NAME":"GSAT0102 (GALILEO-FM2)","OBJECT_ID":"2011-060B","EPOCH":"2023-02-02T02:40:55.941312","MEAN_MOTION":1.70475455,"ECCENTRICITY":0.0005108,"INCLINATION":57.0693,"RA_OF_ASC_NODE":15.0992,"ARG_OF_PERICENTER":320.3889,"MEAN_ANOMALY":36.2062,"EPHEMERIS_TYPE":0,"CLASSIFICATION_TYPE":"U","NORAD_CAT_ID":37847,"ELEMENT_SET_NO":999,"REV_AT_EPOCH":7025,"BSTAR":0,"MEAN_MOTION_DOT":-8.4e-7,"MEAN_MOTION_DDOT":0},{"OBJECT_NAME":"SUOMI NPP","OBJECT_ID":"2011-061A","EPOCH":"2023-02-02T02:40:59.767104","MEAN_MOTION":14.19543377,"ECCENTRICITY":0.000114,"INCLINATION":98.7569,"RA_OF_ASC_NODE":333.7175,"ARG_OF_PERICENTER":69.9965,"MEAN_ANOMALY":300.4499,"EPHEMERIS_TYPE":0,"CLASSIFICATION_TYPE":"U","NORAD_CAT_ID":37849,"ELEMENT_SET_NO":999,"REV_AT_EPOCH":58376,"BSTAR":4.8597e-5,"MEAN_MOTION_DOT":5.8e-7,"MEAN_MOTION_DDOT":0},{"OBJECT_NAME":"M-CUBED & EXP-1 PRIME","OBJECT_ID":"2011-061F","EPOCH":"2023-02-01T05:48:30.408768","MEAN_MOTION":15.18265248,"ECCENTRICITY":0.013808,"INCLINATION":101.7108,"RA_OF_ASC_NODE":278.8389,"ARG_OF_PERICENTER":94.0502,"MEAN_ANOMALY":267.6513,"EPHEMERIS_TYPE":0,"CLASSIFICATION_TYPE":"U","NORAD_CAT_ID":37855,"ELEMENT_SET_NO":999,"REV_AT_EPOCH":61587,"BSTAR":0.00055587,"MEAN_MOTION_DOT":0.00014513,"MEAN_MOTION_DDOT":0},{"OBJECT_NAME":"COSMOS 2476 [GLONASS-M]","OBJECT_ID":"2011-064A","EPOCH":"2023-02-01T03:57:57.491136","MEAN_MOTION":2.13101728,"ECCENTRICITY":0.0022508,"INCLINATION":64.7019,"RA_OF_ASC_NODE":114.6432,"ARG_OF_PERICENTER":234.7922,"MEAN_ANOMALY":126.3309,"EPHEMERIS_TYPE":0,"CLASSIFICATION_TYPE":"U","NORAD_CAT_ID":37867,"ELEMENT_SET_NO":999,"REV_AT_EPOCH":8756,"BSTAR":0,"MEAN_MOTION_DOT":-4.5e-7,"MEAN_MOTION_DDOT":0},{"OBJECT_NAME":"COSMOS 2477 [GLONASS-M]","OBJECT_ID":"2011-064B","EPOCH":"2023-02-01T09:24:29.295072","MEAN_MOTION":2.13101552,"ECCENTRICITY":0.0019973,"INCLINATION":64.7094,"RA_OF_ASC_NODE":114.7026,"ARG_OF_PERICENTER":235.9859,"MEAN_ANOMALY":117.0835,"EPHEMERIS_TYPE":0,"CLASSIFICATION_TYPE":"U","NORAD_CAT_ID":37868,"ELEMENT_SET_NO":999,"REV_AT_EPOCH":8751,"BSTAR":0,"MEAN_MOTION_DOT":-4.4e-7,"MEAN_MOTION_DDOT":0},{"OBJECT_NAME":"COSMOS 2475 [GLONASS-M]","OBJECT_ID":"2011-064C","EPOCH":"2023-02-01T11:21:36.326304","MEAN_MOTION":2.13101755,"ECCENTRICITY":0.002399,"INCLINATION":64.7169,"RA_OF_ASC_NODE":114.7101,"ARG_OF_PERICENTER":252.5183,"MEAN_ANOMALY":121.1863,"EPHEMERIS_TYPE":0,"CLASSIFICATION_TYPE":"U","NORAD_CAT_ID":37869,"ELEMENT_SET_NO":999,"REV_AT_EPOCH":8753,"BSTAR":0,"MEAN_MOTION_DOT":-4.3e-7,"MEAN_MOTION_DDOT":0},{"OBJECT_NAME":"YAOGAN 12","OBJECT_ID":"2011-066B","EPOCH":"2023-02-02T02:55:02.175744","MEAN_MOTION":15.23727769,"ECCENTRICITY":0.0007718,"INCLINATION":97.2896,"RA_OF_ASC_NODE":103.9918,"ARG_OF_PERICENTER":345.4103,"MEAN_ANOMALY":71.9371,"EPHEMERIS_TYPE":0,"CLASSIFICATION_TYPE":"U","NORAD_CAT_ID":37875,"ELEMENT_SET_NO":999,"REV_AT_EPOCH":62512,"BSTAR":0.00034355,"MEAN_MOTION_DOT":8.194e-5,"MEAN_MOTION_DDOT":0},{"OBJECT_NAME":"CHUANGXIN 1-03 (CX-1-03)","OBJECT_ID":"2011-068A","EPOCH":"2023-02-02T04:28:11.240544","MEAN_MOTION":14.29916085,"ECCENTRICITY":0.0015907,"INCLINATION":98.7034,"RA_OF_ASC_NODE":33.1352,"ARG_OF_PERICENTER":120.7253,"MEAN_ANOMALY":239.5497,"EPHEMERIS_TYPE":0,"CLASSIFICATION_TYPE":"U","NORAD_CAT_ID":37930,"ELEMENT_SET_NO":999,"REV_AT_EPOCH":58707,"BSTAR":7.0005e-5,"MEAN_MOTION_DOT":1.36e-6,"MEAN_MOTION_DDOT":0},{"OBJECT_NAME":"SHIYAN 4 (SY-4)","OBJECT_ID":"2011-068B","EPOCH":"2023-02-01T11:15:51.026112","MEAN_MOTION":14.30055814,"ECCENTRICITY":0.0023401,"INCLINATION":98.7063,"RA_OF_ASC_NODE":33.0456,"ARG_OF_PERICENTER":154.0917,"MEAN_ANOMALY":206.1445,"EPHEMERIS_TYPE":0,"CLASSIFICATION_TYPE":"U","NORAD_CAT_ID":37931,"ELEMENT_SET_NO":999,"REV_AT_EPOCH":58465,"BSTAR":4.1697e-5,"MEAN_MOTION_DOT":6.3e-7,"MEAN_MOTION_DDOT":0},{"OBJECT_NAME":"ASIASAT 7","OBJECT_ID":"2011-069A","EPOCH":"2023-02-01T14:57:42.821856","MEAN_MOTION":1.00272653,"ECCENTRICITY":0.0001765,"INCLINATION":0.0186,"RA_OF_ASC_NODE":177.4146,"ARG_OF_PERICENTER":116.5911,"MEAN_ANOMALY":167.4647,"EPHEMERIS_TYPE":0,"CLASSIFICATION_TYPE":"U","NORAD_CAT_ID":37933,"ELEMENT_SET_NO":999,"REV_AT_EPOCH":4111,"BSTAR":0,"MEAN_MOTION_DOT":-3.31e-6,"MEAN_MOTION_DDOT":0},{"OBJECT_NAME":"YAOGAN 13","OBJECT_ID":"2011-072A","EPOCH":"2023-02-02T04:15:16.923744","MEAN_MOTION":15.24377525,"ECCENTRICITY":0.0001573,"INCLINATION":97.6615,"RA_OF_ASC_NODE":352.2711,"ARG_OF_PERICENTER":47.9925,"MEAN_ANOMALY":76.9848,"EPHEMERIS_TYPE":0,"CLASSIFICATION_TYPE":"U","NORAD_CAT_ID":37941,"ELEMENT_SET_NO":999,"REV_AT_EPOCH":61975,"BSTAR":0.00036248,"MEAN_MOTION_DOT":8.807e-5,"MEAN_MOTION_DDOT":0},{"OBJECT_NAME":"BEIDOU 10","OBJECT_ID":"2011-073A","EPOCH":"2023-02-01T08:14:40.826976","MEAN_MOTION":1.0028212,"ECCENTRICITY":0.0085306,"INCLINATION":49.9212,"RA_OF_ASC_NODE":286.5559,"ARG_OF_PERICENTER":220.4209,"MEAN_ANOMALY":203.9231,"EPHEMERIS_TYPE":0,"CLASSIFICATION_TYPE":"U","NORAD_CAT_ID":37948,"ELEMENT_SET_NO":999,"REV_AT_EPOCH":4105,"BSTAR":0,"MEAN_MOTION_DOT":-1.3e-6,"MEAN_MOTION_DDOT":0},{"OBJECT_NAME":"LUCH 5A","OBJECT_ID":"2011-074B","EPOCH":"2023-02-01T15:41:55.163616","MEAN_MOTION":1.00268768,"ECCENTRICITY":0.0002251,"INCLINATION":5.5975,"RA_OF_ASC_NODE":93.4364,"ARG_OF_PERICENTER":228.7221,"MEAN_ANOMALY":211.956,"EPHEMERIS_TYPE":0,"CLASSIFICATION_TYPE":"U","NORAD_CAT_ID":37951,"ELEMENT_SET_NO":999,"REV_AT_EPOCH":4084,"BSTAR":0,"MEAN_MOTION_DOT":-4.9e-7,"MEAN_MOTION_DDOT":0},{"OBJECT_NAME":"SSOT","OBJECT_ID":"2011-076E","EPOCH":"2023-02-02T03:13:25.504608","MEAN_MOTION":14.82111794,"ECCENTRICITY":0.0001247,"INCLINATION":97.7687,"RA_OF_ASC_NODE":104.0705,"ARG_OF_PERICENTER":73.8953,"MEAN_ANOMALY":286.2362,"EPHEMERIS_TYPE":0,"CLASSIFICATION_TYPE":"U","NORAD_CAT_ID":38011,"ELEMENT_SET_NO":999,"REV_AT_EPOCH":60205,"BSTAR":0.00021198,"MEAN_MOTION_DOT":1.635e-5,"MEAN_MOTION_DDOT":0},{"OBJECT_NAME":"PLEIADES 1A","OBJECT_ID":"2011-076F","EPOCH":"2023-02-02T03:02:33.196704","MEAN_MOTION":14.58590321,"ECCENTRICITY":0.0001433,"INCLINATION":98.178,"RA_OF_ASC_NODE":109.7969,"ARG_OF_PERICENTER":79.1862,"MEAN_ANOMALY":280.9475,"EPHEMERIS_TYPE":0,"CLASSIFICATION_TYPE":"U","NORAD_CAT_ID":38012,"ELEMENT_SET_NO":999,"REV_AT_EPOCH":59255,"BSTAR":0.00011578,"MEAN_MOTION_DOT":4.93e-6,"MEAN_MOTION_DDOT":0}]
